[{"OBJECT_NAME":"STARLINK-5874","OBJECT_ID":"2023-058AN","EPOCH":"2026-03-09T22:41:33.227808","MEAN_MOTION":15.0126198,"ECCENTRICITY":0.00027368,"INCLINATION":97.6041,"RA_OF_ASC_NODE":70.5404,"ARG_OF_PERICENTER":84.1186,"MEAN_ANOMALY":276.0351,"EPHEMERIS_TYPE":0,"CLASSIFICATION_TYPE":"U","NORAD_CAT_ID":56353,"ELEMENT_SET_NO":999,"REV_AT_EPOCH":15817,"BSTAR":2.6054595e-5,"MEAN_MOTION_DOT":2.76e-6,"MEAN_MOTION_DDOT":0},{"OBJECT_NAME":"FENGYUN 1C DEB","OBJECT_ID":"1999-025EUR","EPOCH":"2026-03-07T09:41:40.257024","MEAN_MOTION":14.25341338,"ECCENTRICITY":0.0346532,"INCLINATION":98.3608,"RA_OF_ASC_NODE":118.3108,"ARG_OF_PERICENTER":102.8707,"MEAN_ANOMALY":325.6511,"EPHEMERIS_TYPE":0,"CLASSIFICATION_TYPE":"U","NORAD_CAT_ID":38801,"ELEMENT_SET_NO":999,"REV_AT_EPOCH":65566,"BSTAR":0.00083362138,"MEAN_MOTION_DOT":3.651e-5,"MEAN_MOTION_DDOT":0}]
